GORIZONT 1 [-]          
1 11158U 78118A   14296.57023582 -.00000152  00000-0  00000+0 0  9735
2 11158  18.4307 287.2835 3340109 153.3557 228.5498  1.00310787 80277
GORIZONT 2 [-]          
1 11440U 79062A   14298.03764473 -.00000140  00000-0  00000+0 0  3081
2 11440  13.9807 334.5494 0007688 201.8125 308.2978  1.00307175 95364
GORIZONT 3 [-]          
1 11648U 79105A   14298.00601457 -.00000022  00000-0  00000+0 0  1478
2 11648  14.0508 335.6970 0016248 148.6062 338.5941  1.00199059 79824
GORIZONT 4 [-]          
1 11841U 80049A   14298.39703954 -.00000082  00000-0  00000+0 0  3253
2 11841  14.9286 339.8328 0005797 204.7058 275.9529  0.98628105191602
GORIZONT 5 [-]          
1 13092U 82020A   14300.32582269 -.00000001  00000-0  00000+0 0  2121
2 13092  15.5134 344.5963 0036651 138.5090 282.0408  0.98529986 79700
GORIZONT 6 [-]          
1 13624U 82103A   14300.39742850  .00000098  00000-0  00000+0 0  2692
2 13624  14.3629 344.4807 0005704 161.5643 231.3999  1.00223094 78311
GORIZONT 7 [-]          
1 14160U 83066A   14298.37742051 -.00000177  00000-0  00000+0 0  2121
2 14160  15.3459 351.8743 0013171 221.9118 272.6445  0.98348395112967
GORIZONT 8 [-]          
1 14532U 83118A   14299.35943605 -.00000060  00000-0  00000+0 0  3266
2 14532  15.3555 353.3926 0026999  82.1687   7.3401  0.98268525 78756
GORIZONT 9 [-]          
1 14940U 84041A   14299.68360218  .00000070  00000-0  00000+0 0  3725
2 14940  14.6283 352.2606 0009105 161.9864 179.7984  1.00279448 79385
GORIZONT 10 [-]         
1 15144U 84078A   14300.29872086 -.00000226  00000-0  00000+0 0  2445
2 15144  14.6229 353.2629 0004538 186.5499 240.5610  1.00174448111980
GORIZONT 11 [-]         
1 15484U 85007A   14296.89778494 -.00000341  00000-0  00000+0 0  3004
2 15484  14.6172 355.0108 0004293 145.9690 321.6266  1.00173582109967
GORIZONT 12 [-]         
1 16769U 86044A   14296.95049060 -.00000334  00000-0  00000+0 0  8434
2 16769  14.7220 359.8489 0006581 178.2241 298.6303  1.00317813104615
GORIZONT 13 [-]         
1 17083U 86090A   14298.48571668 -.00000168  00000-0  00000+0 0  9480
2 17083  15.9791   5.3581 0015403 244.0893 110.9846  0.96726479 77539
GORIZONT 14 [-]         
1 17969U 87040A   14296.86052978 -.00000166  00000-0  00000+0 0  4941
2 17969  15.7926 357.9252 0031710 107.3204 237.2852  0.97659279 78307
GORIZONT 15 [-]         
1 19017U 88028A   14299.47748933 -.00000196  00000-0  00000+0 0  3039
2 19017  15.8712   8.9935 0036813  87.6008 270.4508  0.97829678 77903
GORIZONT 16 [-]         
1 19397U 88071A   14297.67047279 -.00000225  00000-0  00000+0 0  1393
2 19397  14.8169   8.0824 0009299 328.8521  32.8887  0.99965878 95708
GORIZONT 17 [-]         
1 19765U 89004A   14296.14976706 -.00000200  00000-0  00000+0 0   398
2 19765  15.0246  10.8962 0020198  67.4185   3.5905  0.99068351 93415
GORIZONT 18 [-]         
1 20107U 89052A   14298.49914458 -.00000261  00000-0  00000+0 0  2073
2 20107  14.9102  12.2903 0036316 233.2506 128.2778  0.99405046 92133
GORIZONT 19 [-]         
1 20263U 89081A   14296.15284661  .00000123  00000-0  00000+0 0  6907
2 20263  14.6975  11.8994 0007291 169.7944 306.1948  1.00230694 91824
GORIZONT 20 [-]         
1 20659U 90054A   14296.93381263  .00000033  00000-0  00000+0 0  1703
2 20659  14.7971  14.9321 0009577 125.6957 287.9121  1.00236511 89035
GORIZONT 21 [-]         
1 20923U 90094A   14299.19055612 -.00000193  00000-0  00000+0 0  1920
2 20923  14.7186  15.7523 0008716 159.7896 263.4517  1.00304663 87809
GORIZONT 22 [-]         
1 20953U 90102A   14299.61197476 -.00000368  00000-0  00000+0 0   546
2 20953  14.6444  15.9869 0003937 198.0814 161.6621  1.00345171 87779
GORIZONT 23 [-]         
1 21533U 91046A   14300.08570841 -.00000233  00000-0  00000+0 0   141
2 21533  14.9550  19.5555 0007725 197.5690 195.2136  0.98910346 78684
GORIZONT 24 [-]         
1 21759U 91074A   14300.41244892 -.00000207  00000-0  00000+0 0  6555
2 21759  14.9051  21.0784 0022526 151.7485 187.1385  0.98444823 83181
GORIZONT 25 [-]         
1 21922U 92017A   14297.66355140  .00000121  00000-0  00000+0 0    71
2 21922  14.4882  21.0877 0023240   4.3428 291.3057  0.99845888 82468
GORIZONT 26 [-]         
1 22041U 92043A   14297.02059390  .00000075  00000-0  00000+0 0  6615
2 22041  14.4479  22.6165 0035705 157.6149 268.9214  0.99240700 81276
GORIZONT 27 [-]         
1 22245U 92082A   14299.32867731  .00000009  00000-0  00000+0 0  1101
2 22245  14.3698  23.0200 0010563 262.3258 106.5622  1.00147699 84559
GORIZONT 28 [-]         
1 22880U 93069A   14298.54371802 -.00000343  00000-0  00000+0 0   228
2 22880  14.0879  26.2875 0032607  61.9304 274.8457  0.99655976 76750
GORIZONT 29 [-]         
1 22907U 93072A   14299.46702127 -.00000264  00000-0  00000+0 0  3362
2 22907  14.0458  26.1081 0010840 235.8627 230.1617  1.00126607 76622
GORIZONT 30 [-]         
1 23108U 94030A   14298.06844119 -.00000082  00000-0  00000+0 0  1180
2 23108  13.9434  27.1677 0005738 154.5492 228.3046  1.00263320 74848
GORIZONT 31 [-]         
1 23775U 96005A   14297.46360831  .00000109  00000-0  00000+0 0  6501
2 23775  13.1754  32.6002 0023434 127.3143 255.7227  0.99889219 68556
GORIZONT 32 [-]         
1 23880U 96034A   14297.72232699 -.00000241  00000-0  00000+0 0  5203
2 23880  13.0580  33.3241 0007990 238.8486 114.7055  1.00142601 67438
GORIZONT 33 [-]         
1 26372U 00029A   14300.07976642 -.00000063  00000-0  00000+0 0  2891
2 26372  10.6543  42.2806 0003422 113.2542 261.8108  1.00291861 52799
